OBJECT_NAME,OBJECT_ID,EPOCH,MEAN_MOTION,ECCENTRICITY,INCLINATION,RA_OF_ASC_NODE,ARG_OF_PERICENTER,MEAN_ANOMALY,EPHEMERIS_TYPE,CLASSIFICATION_TYPE,NORAD_CAT_ID,ELEMENT_SET_NO,REV_AT_EPOCH,BSTAR,MEAN_MOTION_DOT,MEAN_MOTION_DDOT
SBIRS GEO-6 (USA 336),2022-092A,2026-06-04T21:04:00.596352,1.00271658,.00021957,3.2791,317.2810,114.3379,276.7161,0,U,53355,999,1411,0,-.281E-5,0
EUTELSAT KONNECT VHTS,2022-110A,2026-06-04T22:07:46.480800,1.00271378,.00028619,0.0654,105.0800,315.2195,167.7176,0,U,53765,999,671,0,.29E-6,0
ZHONGXING-1E,2022-112A,2026-06-04T22:30:13.736736,1.00271429,.00004199,0.0393,103.2100,266.4756,302.6667,0,U,53813,999,1372,0,-.137E-5,0
SES-20,2022-123A,2026-06-04T21:37:42.365856,1.00269977,.00021744,0.0385,77.3659,14.6323,22.6744,0,U,53960,999,1341,0,-.89E-6,0
SES-21,2022-123B,2026-06-04T22:31:06.098592,1.00269925,.00008556,0.0268,31.0526,39.1602,29.9312,0,U,53961,999,709,0,.81E-6,0
GALAXY 33 (G-33),2022-128A,2026-06-04T18:39:55.412352,1.00271770,.00020258,0.0161,33.5739,40.2638,326.3762,0,U,54026,999,1361,0,.91E-6,0
GALAXY 34 (G-34),2022-128B,2026-06-04T14:54:01.167840,1.00276282,.00020968,0.0159,0.4577,81.0440,266.0785,0,U,54027,999,1378,0,.7E-6,0
ANGOSAT 2,2022-131A,2026-06-03T13:42:55.162656,1.00272126,.0001675,0.0320,77.4861,43.8281,359.4453,0,U,54033,999,1334,0,.147E-5,0
EUTELSAT HOTBIRD 13F,2022-134A,2026-06-04T22:10:46.192800,1.00271287,.00019331,0.0469,291.6573,74.3918,233.0162,0,U,54048,999,1325,0,.99E-6,0
LDPE-2,2022-144A,2026-06-04T12:45:02.244672,1.00527893,.00016833,5.5824,63.7543,89.4691,121.7668,0,U,54219,999,1171,0,.132E-5,0
EUTELSAT HOTBIRD 13G,2022-146A,2026-06-04T22:10:46.192800,1.00271022,.00021443,0.0455,232.4986,303.4323,63.1255,0,U,54225,999,734,0,.99E-6,0
ZHONGXING-19,2022-148A,2026-06-04T21:10:52.438368,1.00270460,.00023921,0.0311,274.4140,183.8754,275.9421,0,U,54230,999,1325,0,-.7E-6,0
GALAXY 31 (G-31),2022-153A,2026-06-04T21:32:35.356416,1.00272105,.0001486,0.0124,53.4548,20.7253,21.3059,0,U,54243,999,701,0,.25E-6,0
GALAXY 32 (G-32),2022-153B,2026-06-03T20:00:59.416128,1.00270822,.00023838,0.0097,353.7552,46.7034,61.0732,0,U,54244,999,1301,0,-.162E-5,0
EUTELSAT 10B,2022-157A,2026-06-04T22:09:53.777376,1.00270790,.00024508,0.0641,101.8874,9.6559,124.2870,0,U,54259,999,1290,0,.8E-6,0
GALAXY 35 (G-35),2022-170A,2026-06-04T21:40:27.102144,1.00272292,.00022303,0.0153,38.5218,40.3537,46.4870,0,U,54741,999,1277,0,-.15E-5,0
GALAXY 36 (G-36),2022-170B,2026-06-04T19:59:03.050016,1.00272562,.00028885,0.0170,238.9661,201.6493,23.4292,0,U,54742,999,1265,0,-.173E-5,0
METEOSAT-12 (MTG-I1),2022-170C,2026-06-04T22:06:54.063648,1.00271450,.00035618,0.7248,20.8931,69.6448,134.1257,0,U,54743,999,1285,0,.4E-7,0
SHIJIAN-23 (SJ-23),2023-002A,2026-06-03T16:03:48.076416,1.00091075,.0003973,3.6827,78.4813,278.4105,293.1700,0,U,55131,999,1237,0,-.165E-5,0
APSTAR-6E,2023-005A,2026-06-03T19:22:40.588608,1.00269237,.0001095,0.0296,251.9045,264.1846,160.8472,0,U,55239,999,1855,0,-.306E-5,0
USA 342,2023-008A,2026-06-04T03:24:27.751104,1.00271932,.0000373,0.0087,134.3874,135.9762,57.1445,0,U,55263,999,1238,0,.15E-5,0
LDPE-3A,2023-008B,2026-06-04T21:50:03.681312,0.99148427,.0001223,2.3153,81.8149,41.7475,38.0268,0,U,55264,999,1169,0,-.172E-5,0
ELEKTRO-L 4,2023-016A,2026-06-04T20:03:43.399008,1.00272506,.00006725,0.0742,185.8718,355.8265,178.3064,0,U,55506,999,1220,0,-.46E-6,0
AMAZONAS NEXUS,2023-017A,2026-06-04T16:40:04.589184,1.00270829,.00054249,0.0364,32.0326,29.5466,20.5956,0,U,55508,999,692,0,-.27E-5,0
ZHONGXING-26,2023-023A,2026-06-04T22:42:42.539616,1.00270060,.00041682,0.0704,72.4499,9.1598,277.5798,0,U,55686,999,1210,0,-.341E-5,0
LUCH-5X (OLYMP-K 2),2023-031A,2026-06-03T17:26:15.433728,1.00270312,.000078,0.0239,54.9081,159.5695,1.2300,0,U,55841,999,1180,0,.45E-6,0
GAOFEN-13 02,2023-036A,2026-06-04T21:06:37.845216,1.00274289,.00042293,1.0190,359.5272,343.4731,15.2472,0,U,55912,999,1196,0,-.206E-5,0
SES-18,2023-038A,2026-06-04T21:37:42.365856,1.00272094,.00004693,0.0140,296.9589,70.3954,107.3238,0,U,55970,999,1198,0,-.89E-6,0
SES-19,2023-038B,2026-06-04T15:00:08.271936,1.00272932,.00017818,0.0111,9.5341,61.7513,271.9241,0,U,55971,999,1196,0,.1E-5,0
INTELSAT 40E (IS-40E),2023-052A,2026-06-04T14:50:24.625248,1.00272312,.00021256,0.0148,28.7642,86.5025,269.4042,0,U,56174,999,1169,0,-.162E-5,0
VIASAT-3 F1,2023-060A,2026-06-04T19:59:03.050016,1.00267593,.00009195,0.0232,320.6697,101.7629,41.6159,0,U,56370,999,1131,0,0,0
